{
  "type": "FeatureCollection",
  "features": [
    {
      "type": "Feature",
      "properties": {},
      "geometry": {
        "type": "Polygon",
        "coordinates": [
          [
            [
              28.004797,
              -26.1599795
            ],
            [
              28.004117,
              -26.1582373
            ],
            [
              28.00424,
              -26.1580469
            ],
            [
              28.0051569,
              -26.1575959
            ],
            [
              28.005914,
              -26.1566267
            ],
            [
              28.0057932,
              -26.1545981
            ],
            [
              28.0062474,
              -26.1521783
            ],
            [
              28.0066003,
              -26.1499617
            ],
            [
              28.0027562,
              -26.1513351
            ],
            [
              28.0026104,
              -26.1512998
            ],
            [
              28.0024742,
              -26.1512647
            ],
            [
              28.0023633,
              -26.1512292
            ],
            [
              28.0020204,
              -26.1511226
            ],
            [
              28.0014805,
              -26.1509063
            ],
            [
              28.001271,
              -26.1509108
            ],
            [
              27.9982191,
              -26.1521995
            ],
            [
              27.9983701,
              -26.153142
            ],
            [
              27.9983695,
              -26.153725
            ],
            [
              27.9982728,
              -26.1544121
            ],
            [
              27.9978188,
              -26.1575338
            ],
            [
              27.9978075,
              -26.157612
            ],
            [
              27.9968786,
              -26.1603398
            ],
            [
              27.9965963,
              -26.1607917
            ],
            [
              27.9972818,
              -26.1612698
            ],
            [
              27.9972985,
              -26.1613013
            ],
            [
              27.9979031,
              -26.1618197
            ],
            [
              27.9984249,
              -26.1624026
            ],
            [
              27.9988201,
              -26.1630331
            ],
            [
              27.9989586,
              -26.1636538
            ],
            [
              27.9989644,
              -26.1636917
            ],
            [
              27.9990168,
              -26.1640356
            ],
            [
              27.9990369,
              -26.1644332
            ],
            [
              27.998886,
              -26.1663548
            ],
            [
              27.9987698,
              -26.1671811
            ],
            [
              27.9987165,
              -26.1674846
            ],
            [
              27.9993168,
              -26.1675214
            ],
            [
              28.0003347,
              -26.1669974
            ],
            [
              28.0003845,
              -26.1669206
            ],
            [
              27.9995281,
              -26.1668313
            ],
            [
              28.0001312,
              -26.1640189
            ],
            [
              28.0011541,
              -26.1634936
            ],
            [
              28.0011794,
              -26.1629828
            ],
            [
              28.0019332,
              -26.162065
            ],
            [
              28.0030253,
              -26.161677
            ],
            [
              28.0041741,
              -26.1600927
            ],
            [
              28.004797,
              -26.1599795
            ]
          ]
        ]
      }
    }
  ]
}
