{
    "license": "CC0-1.0",
    "description": {
        "en": "Paris Métro line 7 map",
        "es": "Mapa de la línea 7 del Metro de Paris",
        "eu": "Parisko Metroaren 7. lineko mapa",
        "fr": "Carte de la ligne 7 du réseau Métro de Paris"
    },
    "sources": "osm",
    "mediawikiCategories": [
        {
            "name": "Maps of the Paris Métro Line 7",
            "sort": ""
        }
    ],
    "zoom": 12,
    "latitude": 48.86052,
    "longitude": 2.37545,
    "data": {
        "type": "FeatureCollection",
        "features": [
            {
                "type": "Feature",
                "properties": {
                    "stroke": "#ff82b4",
                    "stroke-width": 5,
                    "stroke-opacity": 1,
                    "description": "'''<span style=background-color:#ff82b4><font color=#000000>&nbsp;7&nbsp;</font></span>'''"
                },
                "geometry": {
                    "type": "MultiLineString",
                    "coordinates": [
                        [
                            [
                                2.410766,
                                48.9207595
                            ],
                            [
                                2.385591,
                                48.8974039
                            ],
                            [
                                2.3669376,
                                48.8825323
                            ],
                            [
                                2.36581,
                                48.8817262
                            ],
                            [
                                2.3625503,
                                48.8807449
                            ],
                            [
                                2.3622466,
                                48.8804036
                            ],
                            [
                                2.3622855,
                                48.878727
                            ],
                            [
                                2.3595912,
                                48.8765216
                            ],
                            [
                                2.3570011,
                                48.8763991
                            ],
                            [
                                2.3494665,
                                48.8773195
                            ],
                            [
                                2.3337009,
                                48.8732048
                            ],
                            [
                                2.3330296,
                                48.8727753
                            ],
                            [
                                2.33228,
                                48.8703837
                            ],
                            [
                                2.334933,
                                48.8646155
                            ],
                            [
                                2.3356009,
                                48.8633531
                            ],
                            [
                                2.3366388,
                                48.8628937
                            ],
                            [
                                2.3398958,
                                48.8619304
                            ],
                            [
                                2.3401345,
                                48.8613922
                            ],
                            [
                                2.3401373,
                                48.8590872
                            ],
                            [
                                2.3406944,
                                48.8588199
                            ],
                            [
                                2.3418394,
                                48.8586746
                            ],
                            [
                                2.3483419,
                                48.8568523
                            ],
                            [
                                2.3583165,
                                48.8531535
                            ],
                            [
                                2.3607339,
                                48.852209
                            ],
                            [
                                2.3634302,
                                48.8500292
                            ],
                            [
                                2.3635576,
                                48.8496661
                            ],
                            [
                                2.3633967,
                                48.8493652
                            ],
                            [
                                2.3586961,
                                48.846377
                            ],
                            [
                                2.3572738,
                                48.84599
                            ],
                            [
                                2.354801,
                                48.8459626
                            ],
                            [
                                2.3541367,
                                48.8457385
                            ],
                            [
                                2.3525957,
                                48.8447706
                            ],
                            [
                                2.3519334,
                                48.8406473
                            ],
                            [
                                2.3509186,
                                48.8385004
                            ],
                            [
                                2.3560662,
                                48.830147
                            ],
                            [
                                2.359533,
                                48.8190866
                            ],
                            [
                                2.3621469,
                                48.819316
                            ],
                            [
                                2.3692746,
                                48.8216532
                            ],
                            [
                                2.3743186,
                                48.8190029
                            ],
                            [
                                2.3773455,
                                48.8159011
                            ],
                            [
                                2.3845877,
                                48.8105257
                            ]
                        ],
                        [
                            [
                                2.3670909,
                                48.7863934
                            ],
                            [
                                2.3696583,
                                48.7916517
                            ],
                            [
                                2.3683565,
                                48.7961557
                            ],
                            [
                                2.3674265,
                                48.7983891
                            ],
                            [
                                2.3653023,
                                48.8001894
                            ],
                            [
                                2.359533,
                                48.8190866
                            ]
                        ]
                    ]
                }
            }
        ]
    }
}
