{"type":"FeatureCollection","features":[{"type":"Feature","properties":{"marker-color":"#bcb234","marker-size":"large","marker-symbol":"gate","Location":"Zambesi Road Entrance","Please note":"The entrance is within a gated suburb, so access might be difficult"},"geometry":{"coordinates":[28.010854687551273,-26.17129575772004],"type":"Point"},"id":1},{"type":"Feature","properties":{"marker-color":"#bcb234","marker-size":"large","marker-symbol":"gate","Location":"Hill Road Entrance","Please note":"The entrance is close to the garage and there is parking in Hill Street. Steep climb up to the view site.  "},"geometry":{"coordinates":[28.012741043491815,-26.17343864734866],"type":"Point"},"id":2},{"type":"Feature","properties":{"marker-color":"#bcb234","marker-size":"large","marker-symbol":"gate","Location":"Fourth Street Entrance","Please note":"The entrance is located within the top part of Melville. Street parking."},"geometry":{"coordinates":[28.00381565064214,-26.172132021888537],"type":"Point"},"id":3},{"type":"Feature","properties":{"marker-color":"#bcb234","marker-size":"large","marker-symbol":"gate","Location":"Fifth Street Entrance","Please note":"The entrance is close to the garage and there is parking in Hill Street. Steep climb up to the view site.  "},"geometry":{"coordinates":[28.005869122132083,-26.17247970179561],"type":"Point"},"id":4},{"type":"Feature","properties":{"marker-color":"#bcb234","marker-size":"large","marker-symbol":"gate","Location":"Kloof Road Entrance","Please note":"The entrance is close to the garage and there is parking in Hill Street. Steep climb up to the view site.  "},"geometry":{"coordinates":[28.00810711026645,-26.172891008314323],"type":"Point"},"id":5}]}
