{"type":"FeatureCollection","features":[{"type":"Feature","properties":{"name":"Zambesi Road Entrance","marker size":"large"},"geometry":{"coordinates":[28.010854687551273,-26.17129575772004],"type":"Point"},"id":1},{"type":"Feature","properties":{"name":"Hill Road Entrance","marker size":"large"},"geometry":{"coordinates":[28.012741043491815,-26.17343864734866],"type":"Point"},"id":2},{"type":"Feature","properties":{"@id":"relation/16463821","access":"permit","addr:city":"Johannesburg","addr:street":"Judith Road","boundary":"protected_area","dog":"no","leisure":"nature_reserve","name":"Melville Koppies","official_name":"Melville Koppies Nature Reserve","opening_hours":"Sunday 08h00-11h00","sagns_id":105702,"source":"sagns","type":"multipolygon","wikidata":"Q31953891","wikipedia":"en:Melville Koppies"},"geometry":{"type":"MultiPolygon","coordinates":[[[[28.0059359,-26.1706518],[28.0059981,-26.1698412],[28.0060028,-26.1697027],[28.0060725,-26.1686573],[28.0060939,-26.1666629],[28.0059518,-26.1665726],[28.0044728,-26.1664936],[28.0044287,-26.1664912],[28.0030805,-26.1664191],[28.0029129,-26.1664342],[28.0009173,-26.1668868],[28.0005794,-26.1670794],[27.9996567,-26.1676475],[27.9992007,-26.167763],[27.9986321,-26.1677486],[27.9983531,-26.1689233],[27.9983639,-26.169684],[27.9986213,-26.1703388],[27.999308,-26.1715713],[28.0022477,-26.1712054],[28.0029773,-26.1715809],[28.0034606,-26.171862],[28.0036093,-26.1719389],[28.0037213,-26.1720505],[28.003774,-26.1720969],[28.0038204,-26.1721299],[28.0038376,-26.172226],[28.0039274,-26.172164],[28.0042036,-26.1721601],[28.0045033,-26.1721559],[28.0047904,-26.1721519],[28.0051767,-26.1723801],[28.005867,-26.1724866],[28.0060701,-26.172517],[28.0061852,-26.1725342],[28.0081056,-26.1728905],[28.0085241,-26.1727557],[28.0087601,-26.1728905],[28.0093502,-26.1729193],[28.0098974,-26.1727845],[28.0106269,-26.1725727],[28.0122282,-26.1728553],[28.0124069,-26.1730599],[28.0126745,-26.173432],[28.0127221,-26.1734384],[28.0127425,-26.1734411],[28.0127743,-26.1734454],[28.0128342,-26.1734404],[28.0128706,-26.173433],[28.0128512,-26.1732722],[28.0128084,-26.1731541],[28.0128378,-26.1729816],[28.0129624,-26.1724302],[28.0132877,-26.1721779],[28.0135344,-26.1719501],[28.0135994,-26.1716375],[28.0130838,-26.1715809],[28.0120968,-26.1714172],[28.0115361,-26.1712512],[28.0108569,-26.1712943],[28.0106108,-26.1713089],[28.010195,-26.1715004],[28.0093065,-26.1719396],[28.0091839,-26.1720864],[28.0059359,-26.1706518]]],[[[27.98281,-26.1685246],[27.9832996,-26.1701264],[27.9835332,-26.1702365],[27.9835701,-26.1705871],[27.9859874,-26.1705317],[27.9860543,-26.1710497],[27.9868713,-26.171138],[27.985966,-26.1725513],[27.9879092,-26.1725734],[27.9879313,-26.1718005],[27.9944233,-26.1723526],[27.9944563,-26.1726176],[27.9959393,-26.1729911],[27.9961696,-26.1725225],[27.9976193,-26.1720432],[27.9978019,-26.1719957],[27.9990569,-26.171669],[27.9983184,-26.1701796],[27.9981816,-26.1697376],[27.9981276,-26.1694291],[27.9981308,-26.1687712],[27.9986607,-26.1665041],[27.9970586,-26.1680428],[27.9910073,-26.1669711],[27.9847695,-26.1674525],[27.984538,-26.1675471],[27.9848234,-26.1681949],[27.98281,-26.1685246]]]]},"id":2},{"type":"Feature","properties":{"name":"Fourth Street Entrance","marker size":"large"},"geometry":{"coordinates":[28.00381565064214,-26.172132021888537],"type":"Point"},"id":3},{"type":"Feature","properties":{"name":"Fifth Street Entrance","marker size":"large"},"geometry":{"coordinates":[28.005869122132083,-26.17247970179561],"type":"Point"},"id":4},{"type":"Feature","properties":{"name":"Kloof Road Entrance","marker size":"large"},"geometry":{"coordinates":[28.00810711026645,-26.172891008314323],"type":"Point"},"id":5}]}
