{
  "type": "FeatureCollection",
  "generator": "overpass-turbo",
  "copyright": "The data included in this document is from www.openstreetmap.org. The data is made available under ODbL.",
  "timestamp": "2026-04-24T19:06:15Z",
  "features": [
    {
      "type": "Feature",
      "properties": {
        "@id": "way/173204460",
        "internet_access": "wlan",
        "internet_access:fee": "no",
        "internet_access:operator": "Mairie de Paris",
        "leisure": "park",
        "name": "Parc des Buttes-Chaumont",
        "name:en": "Parc des Buttes Chaumont",
        "name:eo": "Parko Buttes-Chaumont",
        "name:he": "פארק דה בוט שומון",
        "name:zh": "肖蒙山丘公园",
        "opening_hours": "Apr,Sep 07:00-21:00; Oct-Mar 07:00-20:00; May-Aug 07:00-22:00",
        "ref:FR:FANTOIR": "751191395R",
        "source": "cadastre-dgi-fr source : Direction Générale des Impôts - Cadastre. Mise à jour : 2012",
        "source:internet_access": "Paris Open Data",
        "source:opening_hours": "https://commons.wikimedia.org/wiki/File:Panneau_Parc_Buttes_Chaumont_-_Paris_XIX_%28FR75%29_-_2021-07-26_-_1.jpg",
        "start_date": "1867",
        "website": "https://www.paris.fr/equipements/parc-des-buttes-chaumont-1757",
        "wikidata": "Q532113",
        "wikimedia_commons": "Category:Parc des Buttes-Chaumont",
        "wikipedia": "fr:Parc des Buttes-Chaumont"
      },
      "geometry": {
        "type": "Polygon",
        "coordinates": [
          [
            [
              2.3882832,
              48.8796782
            ],
            [
              2.3883328,
              48.8796781
            ],
            [
              2.3883798,
              48.8796772
            ],
            [
              2.3889127,
              48.8796683
            ],
            [
              2.3889916,
              48.8796678
            ],
            [
              2.3892192,
              48.8796656
            ],
            [
              2.3892289,
              48.879678
            ],
            [
              2.3892374,
              48.8796896
            ],
            [
              2.3883725,
              48.8804506
            ],
            [
              2.3875722,
              48.8811481
            ],
            [
              2.3875353,
              48.8811816
            ],
            [
              2.3875335,
              48.8811807
            ],
            [
              2.386362,
              48.8822038
            ],
            [
              2.3859756,
              48.8825428
            ],
            [
              2.3855422,
              48.8829201
            ],
            [
              2.3854071,
              48.8829041
            ],
            [
              2.3853541,
              48.8828994
            ],
            [
              2.3852986,
              48.8828942
            ],
            [
              2.384635,
              48.8828334
            ],
            [
              2.3842397,
              48.8827822
            ],
            [
              2.3839812,
              48.8827387
            ],
            [
              2.3837605,
              48.8827016
            ],
            [
              2.3836758,
              48.8826824
            ],
            [
              2.3834165,
              48.8826232
            ],
            [
              2.3830095,
              48.882508
            ],
            [
              2.382535,
              48.8823393
            ],
            [
              2.3823298,
              48.8822575
            ],
            [
              2.3822014,
              48.882201
            ],
            [
              2.382152,
              48.8821792
            ],
            [
              2.382087,
              48.8821462
            ],
            [
              2.3820165,
              48.882113
            ],
            [
              2.3819823,
              48.8820963
            ],
            [
              2.3818636,
              48.8820362
            ],
            [
              2.3816521,
              48.8819247
            ],
            [
              2.38133,
              48.8817392
            ],
            [
              2.3811221,
              48.8816082
            ],
            [
              2.3810306,
              48.8815467
            ],
            [
              2.3807945,
              48.881372
            ],
            [
              2.3805173,
              48.8811485
            ],
            [
              2.3803336,
              48.8809836
            ],
            [
              2.380142,
              48.8808064
            ],
            [
              2.3799556,
              48.8806231
            ],
            [
              2.3796863,
              48.8803428
            ],
            [
              2.3796376,
              48.8802881
            ],
            [
              2.3796337,
              48.8802839
            ],
            [
              2.3794741,
              48.880102
            ],
            [
              2.3792463,
              48.8798329
            ],
            [
              2.3791357,
              48.8796771
            ],
            [
              2.3789021,
              48.8793537
            ],
            [
              2.378626,
              48.8789407
            ],
            [
              2.3785921,
              48.8788849
            ],
            [
              2.3785813,
              48.8788628
            ],
            [
              2.3785663,
              48.8788358
            ],
            [
              2.378536,
              48.87878
            ],
            [
              2.3784867,
              48.8786739
            ],
            [
              2.3784439,
              48.8785646
            ],
            [
              2.3784343,
              48.8785659
            ],
            [
              2.3784217,
              48.8785268
            ],
            [
              2.3784287,
              48.8785258
            ],
            [
              2.3783883,
              48.8783543
            ],
            [
              2.3783731,
              48.8781777
            ],
            [
              2.3783706,
              48.8781107
            ],
            [
              2.3783786,
              48.8779972
            ],
            [
              2.3783953,
              48.8778862
            ],
            [
              2.378439,
              48.8777175
            ],
            [
              2.3784678,
              48.8776378
            ],
            [
              2.3785036,
              48.8775544
            ],
            [
              2.3785313,
              48.8774962
            ],
            [
              2.3785793,
              48.8774113
            ],
            [
              2.3786281,
              48.8773347
            ],
            [
              2.3786789,
              48.8772645
            ],
            [
              2.3787121,
              48.8772203
            ],
            [
              2.3788282,
              48.8770878
            ],
            [
              2.3789405,
              48.8769786
            ],
            [
              2.3790688,
              48.876871
            ],
            [
              2.3792184,
              48.8767613
            ],
            [
              2.3793327,
              48.8766927
            ],
            [
              2.3793772,
              48.8766665
            ],
            [
              2.3794009,
              48.876654
            ],
            [
              2.3795107,
              48.8765925
            ],
            [
              2.379724,
              48.8764918
            ],
            [
              2.3797696,
              48.8764709
            ],
            [
              2.3797875,
              48.8764635
            ],
            [
              2.3799106,
              48.8764151
            ],
            [
              2.3800443,
              48.8763713
            ],
            [
              2.3802284,
              48.8763228
            ],
            [
              2.3803731,
              48.8762904
            ],
            [
              2.3804998,
              48.8762656
            ],
            [
              2.3810696,
              48.8761688
            ],
            [
              2.3810842,
              48.8761771
            ],
            [
              2.3811109,
              48.8761919
            ],
            [
              2.3811312,
              48.8762065
            ],
            [
              2.3811528,
              48.8762198
            ],
            [
              2.3811231,
              48.8762796
            ],
            [
              2.3810527,
              48.8764514
            ],
            [
              2.3810008,
              48.8766133
            ],
            [
              2.380956,
              48.876829
            ],
            [
              2.3809374,
              48.8770273
            ],
            [
              2.3809391,
              48.8772168
            ],
            [
              2.380957,
              48.8773967
            ],
            [
              2.38101,
              48.8776149
            ],
            [
              2.3810231,
              48.8776553
            ],
            [
              2.3810628,
              48.8777635
            ],
            [
              2.3810765,
              48.8777906
            ],
            [
              2.3810882,
              48.8778133
            ],
            [
              2.3811355,
              48.8778993
            ],
            [
              2.381217,
              48.8780417
            ],
            [
              2.3812876,
              48.8781382
            ],
            [
              2.3813723,
              48.8782396
            ],
            [
              2.3814565,
              48.8783255
            ],
            [
              2.3815601,
              48.8784209
            ],
            [
              2.3817077,
              48.8785377
            ],
            [
              2.3818302,
              48.8786247
            ],
            [
              2.3819548,
              48.8787038
            ],
            [
              2.3821349,
              48.8788053
            ],
            [
              2.3822877,
              48.8788809
            ],
            [
              2.3825515,
              48.878991
            ],
            [
              2.3827487,
              48.879069
            ],
            [
              2.3828886,
              48.8791168
            ],
            [
              2.3831815,
              48.879202
            ],
            [
              2.3834356,
              48.8792752
            ],
            [
              2.3837483,
              48.8793475
            ],
            [
              2.3839473,
              48.8793874
            ],
            [
              2.3842297,
              48.8794365
            ],
            [
              2.3846069,
              48.8794931
            ],
            [
              2.3849179,
              48.879531
            ],
            [
              2.3853798,
              48.8795792
            ],
            [
              2.3858039,
              48.8796116
            ],
            [
              2.3858189,
              48.8796129
            ],
            [
              2.3858355,
              48.8796136
            ],
            [
              2.3863847,
              48.8796454
            ],
            [
              2.3868934,
              48.8796669
            ],
            [
              2.3873871,
              48.879677
            ],
            [
              2.3876586,
              48.8796787
            ],
            [
              2.3876585,
              48.879676
            ],
            [
              2.3877207,
              48.879675
            ],
            [
              2.3877208,
              48.879679
            ],
            [
              2.3882832,
              48.8796782
            ]
          ]
        ]
      },
      "id": "way/173204460"
    }
  ]
}
