{
  "type": "FeatureCollection",
  "features": [
    {
      "type": "Feature",
      "properties": {
        "@id": "relation/7574623",
        "leisure": "park",
        "name": "Parc de la Villette",
        "name:uk": "Ла-Віллетт",
        "name:zh": "拉维莱特公园",
        "type": "multipolygon",
        "website": "https://lavillette.com/",
        "wikidata": "Q246448",
        "wikipedia": "fr:Parc de la Villette"
      },
      "geometry": {
        "type": "MultiPolygon",
        "coordinates": [
          [
            [
              [
                2.3902113,
                48.8898332
              ],
              [
                2.3903153,
                48.8898722
              ],
              [
                2.3904108,
                48.8899221
              ],
              [
                2.3905389,
                48.8900218
              ],
              [
                2.3906363,
                48.890129
              ],
              [
                2.3891564,
                48.8915089
              ],
              [
                2.390432,
                48.8921386
              ],
              [
                2.3906026,
                48.8919747
              ],
              [
                2.3911357,
                48.8914915
              ],
              [
                2.3915213,
                48.8911418
              ],
              [
                2.3920059,
                48.890719
              ],
              [
                2.3923964,
                48.8908964
              ],
              [
                2.3927837,
                48.8905423
              ],
              [
                2.3927596,
                48.8905194
              ],
              [
                2.3927783,
                48.8904833
              ],
              [
                2.392789,
                48.8898996
              ],
              [
                2.3928591,
                48.8898985
              ],
              [
                2.3929133,
                48.8898803
              ],
              [
                2.3931169,
                48.8897079
              ],
              [
                2.3932993,
                48.8900463
              ],
              [
                2.3932737,
                48.890104
              ],
              [
                2.3932638,
                48.8901713
              ],
              [
                2.3932709,
                48.8902198
              ],
              [
                2.3932875,
                48.8902548
              ],
              [
                2.3933075,
                48.890282
              ],
              [
                2.3933532,
                48.8903118
              ],
              [
                2.3934103,
                48.8903322
              ],
              [
                2.3934628,
                48.8903469
              ],
              [
                2.3936676,
                48.8907237
              ],
              [
                2.3936371,
                48.8907621
              ],
              [
                2.3936275,
                48.8907898
              ],
              [
                2.3936282,
                48.8908234
              ],
              [
                2.393641,
                48.8908823
              ],
              [
                2.3936411,
                48.8909043
              ],
              [
                2.3936326,
                48.8909179
              ],
              [
                2.3935972,
                48.8909409
              ],
              [
                2.3935919,
                48.8909585
              ],
              [
                2.3935974,
                48.8909777
              ],
              [
                2.3936088,
                48.8909997
              ],
              [
                2.3936087,
                48.8910132
              ],
              [
                2.3936006,
                48.8910227
              ],
              [
                2.3935441,
                48.8910531
              ],
              [
                2.393515,
                48.891076
              ],
              [
                2.3934912,
                48.8911109
              ],
              [
                2.3934891,
                48.8911343
              ],
              [
                2.3935009,
                48.8911629
              ],
              [
                2.3935465,
                48.8912272
              ],
              [
                2.3935516,
                48.8912415
              ],
              [
                2.3935491,
                48.8912525
              ],
              [
                2.3935316,
                48.8912767
              ],
              [
                2.3935295,
                48.8912967
              ],
              [
                2.3935353,
                48.8913149
              ],
              [
                2.3935491,
                48.8913372
              ],
              [
                2.3935728,
                48.8913972
              ],
              [
                2.393414,
                48.8921195
              ],
              [
                2.3942639,
                48.8925554
              ],
              [
                2.394344,
                48.8930723
              ],
              [
                2.3937479,
                48.8929915
              ],
              [
                2.3936196,
                48.8934586
              ],
              [
                2.3929022,
                48.8931272
              ],
              [
                2.392428,
                48.8935522
              ],
              [
                2.3925134,
                48.8936055
              ],
              [
                2.3925445,
                48.89378
              ],
              [
                2.392481,
                48.8938491
              ],
              [
                2.3924004,
                48.8938719
              ],
              [
                2.3922292,
                48.8938695
              ],
              [
                2.3921827,
                48.8938853
              ],
              [
                2.3921752,
                48.8939083
              ],
              [
                2.3921841,
                48.8939493
              ],
              [
                2.392256,
                48.8940131
              ],
              [
                2.3922802,
                48.8940781
              ],
              [
                2.3922357,
                48.8941313
              ],
              [
                2.3921257,
                48.8941812
              ],
              [
                2.3920914,
                48.8942657
              ],
              [
                2.3920792,
                48.8942956
              ],
              [
                2.3922967,
                48.8943951
              ],
              [
                2.3921543,
                48.8945302
              ],
              [
                2.386876,
                48.891893
              ],
              [
                2.3868756,
                48.8918419
              ],
              [
                2.3869289,
                48.8917191
              ],
              [
                2.3869391,
                48.891703
              ],
              [
                2.3873293,
                48.8910874
              ],
              [
                2.3874437,
                48.8909004
              ],
              [
                2.3875198,
                48.8907543
              ],
              [
                2.3872486,
                48.8906547
              ],
              [
                2.3872332,
                48.8906498
              ],
              [
                2.3872885,
                48.8905541
              ],
              [
                2.3872652,
                48.8905467
              ],
              [
                2.3873214,
                48.8904539
              ],
              [
                2.3874366,
                48.8904871
              ],
              [
                2.3879633,
                48.8896224
              ],
              [
                2.3882356,
                48.8896919
              ],
              [
                2.3883195,
                48.8897135
              ],
              [
                2.3879738,
                48.8902199
              ],
              [
                2.3883871,
                48.8903902
              ],
              [
                2.3886661,
                48.8903977
              ],
              [
                2.3894065,
                48.8896334
              ],
              [
                2.3896023,
                48.8897351
              ],
              [
                2.3896409,
                48.8897486
              ],
              [
                2.3898763,
                48.8897829
              ],
              [
                2.3902113,
                48.8898332
              ]
            ]
          ],
          [
            [
              [
                2.3844936,
                48.8962593
              ],
              [
                2.3844337,
                48.8961978
              ],
              [
                2.3843269,
                48.896104
              ],
              [
                2.3844114,
                48.8959682
              ],
              [
                2.3843228,
                48.8959433
              ],
              [
                2.3843531,
                48.895906
              ],
              [
                2.3851302,
                48.8946664
              ],
              [
                2.3851613,
                48.8946689
              ],
              [
                2.385571,
                48.8940278
              ],
              [
                2.3861797,
                48.8930785
              ],
              [
                2.3864041,
                48.8927154
              ],
              [
                2.3871658,
                48.8925215
              ],
              [
                2.388644,
                48.8932672
              ],
              [
                2.3912207,
                48.8945458
              ],
              [
                2.3916356,
                48.894752
              ],
              [
                2.3917734,
                48.8948334
              ],
              [
                2.3919997,
                48.8949461
              ],
              [
                2.3919353,
                48.8950825
              ],
              [
                2.3935269,
                48.8957967
              ],
              [
                2.3935195,
                48.8958066
              ],
              [
                2.3934578,
                48.8958902
              ],
              [
                2.3934877,
                48.8959036
              ],
              [
                2.3935177,
                48.8959171
              ],
              [
                2.3934176,
                48.8960356
              ],
              [
                2.3932808,
                48.8961833
              ],
              [
                2.3931447,
                48.8963076
              ],
              [
                2.3930906,
                48.8963502
              ],
              [
                2.3930538,
                48.8963793
              ],
              [
                2.3930204,
                48.8964057
              ],
              [
                2.3929615,
                48.8964499
              ],
              [
                2.3928878,
                48.8965051
              ],
              [
                2.3928379,
                48.896538
              ],
              [
                2.3927745,
                48.8965765
              ],
              [
                2.3927058,
                48.8966167
              ],
              [
                2.3926337,
                48.896655
              ],
              [
                2.3924983,
                48.896722
              ],
              [
                2.392395,
                48.8967679
              ],
              [
                2.3922931,
                48.8968093
              ],
              [
                2.3921804,
                48.896854
              ],
              [
                2.3920842,
                48.8968897
              ],
              [
                2.3919414,
                48.8969391
              ],
              [
                2.3918029,
                48.8969825
              ],
              [
                2.3916798,
                48.8970176
              ],
              [
                2.3915434,
                48.897052
              ],
              [
                2.3913835,
                48.8970875
              ],
              [
                2.3912121,
                48.8971221
              ],
              [
                2.3910475,
                48.8971523
              ],
              [
                2.3908866,
                48.8971787
              ],
              [
                2.3907438,
                48.8971994
              ],
              [
                2.3906214,
                48.8972151
              ],
              [
                2.3904608,
                48.8972318
              ],
              [
                2.3901708,
                48.8972565
              ],
              [
                2.3900303,
                48.8972669
              ],
              [
                2.3898546,
                48.8972783
              ],
              [
                2.3893815,
                48.8973032
              ],
              [
                2.3891636,
                48.897314
              ],
              [
                2.3889787,
                48.8973321
              ],
              [
                2.3887531,
                48.8972182
              ],
              [
                2.3884924,
                48.8970866
              ],
              [
                2.3882684,
                48.8971018
              ],
              [
                2.3870477,
                48.8964943
              ],
              [
                2.3869313,
                48.8965981
              ],
              [
                2.3869649,
                48.8966175
              ],
              [
                2.3863211,
                48.8971631
              ],
              [
                2.3864001,
                48.8972003
              ],
              [
                2.3860755,
                48.897206
              ],
              [
                2.3858499,
                48.8972028
              ],
              [
                2.3858492,
                48.8972324
              ],
              [
                2.3858154,
                48.8972331
              ],
              [
                2.3858054,
                48.8972246
              ],
              [
                2.3857917,
                48.8972169
              ],
              [
                2.385773,
                48.8972118
              ],
              [
                2.3857558,
                48.8972101
              ],
              [
                2.3857374,
                48.8972108
              ],
              [
                2.3856799,
                48.897165
              ],
              [
                2.3856568,
                48.8971442
              ],
              [
                2.3856787,
                48.8971317
              ],
              [
                2.3856325,
                48.897094
              ],
              [
                2.3857077,
                48.8970507
              ],
              [
                2.3854336,
                48.896852
              ],
              [
                2.3852482,
                48.8967176
              ],
              [
                2.3848239,
                48.8964209
              ],
              [
                2.3847669,
                48.8963821
              ],
              [
                2.3846703,
                48.8963241
              ],
              [
                2.3845835,
                48.8962851
              ],
              [
                2.384552,
                48.8962747
              ],
              [
                2.3844936,
                48.8962593
              ]
            ]
          ]
        ]
      },
      "id": "relation/7574623"
    },
    {
      "type": "Feature",
      "properties": {
        "@id": "way/64040845",
        "building": "industrial",
        "building:levels": 3,
        "building:levels:underground": -2,
        "height": 34,
        "image": "https://photos.app.goo.gl/KfVEX6zyrdCnxxx2A",
        "name": "Cité des Sciences et de l'Industrie",
        "roof:colour": "grey",
        "source": "cadastre-dgi-fr source : Direction Générale des Impôts - Cadastre. Mise à jour : 2013",
        "wikidata": "Q1094338"
      },
      "geometry": {
        "type": "Polygon",
        "coordinates": [
          [
            [
              2.3860592,
              48.8953576
            ],
            [
              2.3859872,
              48.8953212
            ],
            [
              2.3860112,
              48.8953004
            ],
            [
              2.386094,
              48.8953393
            ],
            [
              2.3863644,
              48.8951063
            ],
            [
              2.3862822,
              48.8950643
            ],
            [
              2.3863063,
              48.8950434
            ],
            [
              2.3863889,
              48.8950853
            ],
            [
              2.3864141,
              48.8950637
            ],
            [
              2.3864235,
              48.8950556
            ],
            [
              2.3865312,
              48.8949638
            ],
            [
              2.3866047,
              48.8949004
            ],
            [
              2.3866453,
              48.8948646
            ],
            [
              2.3866605,
              48.8948511
            ],
            [
              2.3865747,
              48.894806
            ],
            [
              2.3866037,
              48.8947811
            ],
            [
              2.3866906,
              48.894825
            ],
            [
              2.3869621,
              48.8945899
            ],
            [
              2.3868754,
              48.8945455
            ],
            [
              2.386902,
              48.8945229
            ],
            [
              2.3870776,
              48.8946089
            ],
            [
              2.3870481,
              48.8946331
            ],
            [
              2.3876115,
              48.8949184
            ],
            [
              2.3876387,
              48.8948949
            ],
            [
              2.3876872,
              48.8949191
            ],
            [
              2.3877085,
              48.8949297
            ],
            [
              2.3877301,
              48.8949404
            ],
            [
              2.3877899,
              48.8949702
            ],
            [
              2.387782,
              48.894977
            ],
            [
              2.3877627,
              48.8949937
            ],
            [
              2.3880301,
              48.8951293
            ],
            [
              2.3883262,
              48.8952754
            ],
            [
              2.388347,
              48.8952565
            ],
            [
              2.3883514,
              48.8952525
            ],
            [
              2.3883956,
              48.8952742
            ],
            [
              2.3884047,
              48.8952786
            ],
            [
              2.3884366,
              48.8952941
            ],
            [
              2.3885066,
              48.895328
            ],
            [
              2.3884979,
              48.8953357
            ],
            [
              2.3884792,
              48.8953523
            ],
            [
              2.3890484,
              48.8956346
            ],
            [
              2.3890673,
              48.895617
            ],
            [
              2.3890707,
              48.8956139
            ],
            [
              2.3891122,
              48.8956343
            ],
            [
              2.389125,
              48.8956406
            ],
            [
              2.3891477,
              48.8956518
            ],
            [
              2.3892213,
              48.895688
            ],
            [
              2.3892152,
              48.8956932
            ],
            [
              2.3891973,
              48.8957085
            ],
            [
              2.3897652,
              48.8959894
            ],
            [
              2.3897802,
              48.8959756
            ],
            [
              2.3897832,
              48.8959728
            ],
            [
              2.3899516,
              48.8960559
            ],
            [
              2.3899268,
              48.8960771
            ],
            [
              2.3898589,
              48.8960433
            ],
            [
              2.3898405,
              48.8960342
            ],
            [
              2.3895698,
              48.8962681
            ],
            [
              2.3895895,
              48.8962776
            ],
            [
              2.3896573,
              48.8963103
            ],
            [
              2.3896306,
              48.8963318
            ],
            [
              2.3895654,
              48.8962995
            ],
            [
              2.3895448,
              48.8962892
            ],
            [
              2.3892716,
              48.8965248
            ],
            [
              2.3892929,
              48.896535
            ],
            [
              2.389358,
              48.8965661
            ],
            [
              2.3893327,
              48.8965887
            ],
            [
              2.3892682,
              48.8965569
            ],
            [
              2.3892466,
              48.8965462
            ],
            [
              2.3889766,
              48.8967797
            ],
            [
              2.3889996,
              48.8967916
            ],
            [
              2.3890594,
              48.8968225
            ],
            [
              2.3890303,
              48.8968486
            ],
            [
              2.3889406,
              48.8968032
            ],
            [
              2.3889175,
              48.8967916
            ],
            [
              2.3888967,
              48.8967811
            ],
            [
              2.3888711,
              48.8967681
            ],
            [
              2.3888971,
              48.8967463
            ],
            [
              2.3883347,
              48.8964644
            ],
            [
              2.3883086,
              48.8964861
            ],
            [
              2.3882318,
              48.8964474
            ],
            [
              2.3882101,
              48.8964364
            ],
            [
              2.3881877,
              48.8964251
            ],
            [
              2.3881572,
              48.8964097
            ],
            [
              2.3881793,
              48.8963876
            ],
            [
              2.3876184,
              48.896106
            ],
            [
              2.3875929,
              48.8961275
            ],
            [
              2.3875213,
              48.8960915
            ],
            [
              2.3874479,
              48.8960546
            ],
            [
              2.3874758,
              48.8960301
            ],
            [
              2.3871703,
              48.8958785
            ],
            [
              2.3868967,
              48.8957425
            ],
            [
              2.3868731,
              48.8957644
            ],
            [
              2.3867757,
              48.8957167
            ],
            [
              2.3867207,
              48.8956889
            ],
            [
              2.3867431,
              48.8956677
            ],
            [
              2.3861797,
              48.8953851
            ],
            [
              2.3861552,
              48.895406
            ],
            [
              2.3860992,
              48.8953777
            ],
            [
              2.3860766,
              48.8953663
            ],
            [
              2.3860592,
              48.8953576
            ]
          ]
        ]
      },
      "id": "way/64040845"
    },
    {
      "type": "Feature",
      "properties": {
        "@id": "way/64040790",
        "addr:city": "Paris",
        "addr:housenumber": 26,
        "addr:postcode": 75019,
        "addr:street": "Corentin Cariou",
        "amenity": "cinema",
        "architect": "Adrien Fainsilber;Gérard Chamayou",
        "branch": "Pathé",
        "brand": "Pathé Gaumont",
        "brand:website": "https://www.pathe.fr/",
        "brand:wikidata": "Q3060526",
        "brand:wikipedia": "fr:Pathé Cinémas",
        "building": "yes",
        "building:levels": 4,
        "building:material": "metal",
        "building:min_level": 0,
        "capacity": 400,
        "capacity:wheelchair": 4,
        "cinema:3D": "yes",
        "cinema:IMAX": "yes",
        "contact:email": "contact@lageode.fr",
        "drive_in": "no",
        "height": 36,
        "image": "https://photos.app.goo.gl/4wrVuNfvqsHFZtNX6",
        "internet_access": "wlan",
        "language:en": "yes",
        "language:es": "yes",
        "min_age": 3,
        "name": "La Géode",
        "name:be": "Жэод",
        "name:es": "la Geoda",
        "name:fr": "La Géode",
        "name:it": "Geoide",
        "name:ja": "ラ・ジェオード",
        "name:ru": "Жеод",
        "name:uk": "Жеод",
        "opening_hours": "Mo-Su 09:00-22:00",
        "operator": "Pathé",
        "phone": "+33140057999",
        "pregnant": "not_recommended",
        "ref:FR:CNC": 4571,
        "ref:structurae": 20006043,
        "roof:height": 18,
        "roof:material": "mirror",
        "roof:shape": "dome",
        "screen": 1,
        "website": "https://www.pathe.fr/cinemas/cinema-la-geode",
        "wheelchair": "yes",
        "wikidata": "Q2280550",
        "wikipedia": "fr:La Géode"
      },
      "geometry": {
        "type": "Polygon",
        "coordinates": [
          [
            [
              2.388893,
              48.8946296
            ],
            [
              2.3888795,
              48.8946486
            ],
            [
              2.3888624,
              48.8946664
            ],
            [
              2.388842,
              48.8946825
            ],
            [
              2.3888188,
              48.8946969
            ],
            [
              2.388793,
              48.8947093
            ],
            [
              2.388765,
              48.8947194
            ],
            [
              2.3887353,
              48.8947272
            ],
            [
              2.3887044,
              48.8947324
            ],
            [
              2.3886727,
              48.8947351
            ],
            [
              2.3886408,
              48.8947351
            ],
            [
              2.3886091,
              48.8947325
            ],
            [
              2.3885781,
              48.8947273
            ],
            [
              2.3885484,
              48.8947196
            ],
            [
              2.3885204,
              48.8947095
            ],
            [
              2.3884946,
              48.8946971
            ],
            [
              2.3884713,
              48.8946828
            ],
            [
              2.3884509,
              48.8946666
            ],
            [
              2.3884337,
              48.8946489
            ],
            [
              2.3884201,
              48.8946299
            ],
            [
              2.3884102,
              48.8946099
            ],
            [
              2.3884042,
              48.8945893
            ],
            [
              2.3884022,
              48.8945684
            ],
            [
              2.3884041,
              48.8945474
            ],
            [
              2.3884101,
              48.8945268
            ],
            [
              2.3884199,
              48.8945068
            ],
            [
              2.3884335,
              48.8944878
            ],
            [
              2.3884506,
              48.8944701
            ],
            [
              2.3884709,
              48.8944539
            ],
            [
              2.3884942,
              48.8944395
            ],
            [
              2.38852,
              48.8944271
            ],
            [
              2.388548,
              48.894417
            ],
            [
              2.3885776,
              48.8944092
            ],
            [
              2.3886086,
              48.894404
            ],
            [
              2.3886403,
              48.8944013
            ],
            [
              2.3886722,
              48.8944013
            ],
            [
              2.3887039,
              48.8944039
            ],
            [
              2.3887348,
              48.8944091
            ],
            [
              2.3887645,
              48.8944168
            ],
            [
              2.3887925,
              48.8944269
            ],
            [
              2.3888184,
              48.8944393
            ],
            [
              2.3888417,
              48.8944536
            ],
            [
              2.3888621,
              48.8944698
            ],
            [
              2.3888792,
              48.8944875
            ],
            [
              2.3888928,
              48.8945065
            ],
            [
              2.3889027,
              48.8945265
            ],
            [
              2.3889088,
              48.8945471
            ],
            [
              2.3889108,
              48.894568
            ],
            [
              2.3889088,
              48.894589
            ],
            [
              2.3889029,
              48.8946096
            ],
            [
              2.388893,
              48.8946296
            ]
          ]
        ]
      },
      "id": "way/64040790"
    },
    {
      "type": "Feature",
      "properties": {
        "@id": "way/58169110",
        "building": "yes",
        "fee": "yes",
        "historic": "ship",
        "image": "https://photos.app.goo.gl/mHo4S6X8KysdwMMU6",
        "layer": 1,
        "museum": "maritime,_military,_technology",
        "name": "Argonaute",
        "opening_hours": "Tu-Su 10:00-18:00+",
        "ref": "S636",
        "ship:type": "submarine",
        "source": "cadastre-dgi-fr source : Direction Générale des Impôts - Cadastre. Mise à jour : 2013",
        "start_date": 1958,
        "tourism": "museum",
        "website": "https://www.cite-sciences.fr/fr/argonaute",
        "wheelchair": "no",
        "wikidata": "Q2638057",
        "wikipedia": "fr:Argonaute (S636)"
      },
      "geometry": {
        "type": "Polygon",
        "coordinates": [
          [
            [
              2.3893627,
              48.8947174
            ],
            [
              2.389361,
              48.8947165
            ],
            [
              2.3893663,
              48.8947036
            ],
            [
              2.3894157,
              48.8946357
            ],
            [
              2.389478,
              48.8945659
            ],
            [
              2.3895204,
              48.8945256
            ],
            [
              2.389593,
              48.8944662
            ],
            [
              2.3896399,
              48.8944335
            ],
            [
              2.3897481,
              48.8943583
            ],
            [
              2.3897642,
              48.8943518
            ],
            [
              2.3897677,
              48.8943536
            ],
            [
              2.3897637,
              48.8943659
            ],
            [
              2.3896674,
              48.8944879
            ],
            [
              2.3896038,
              48.8945549
            ],
            [
              2.3895494,
              48.8946013
            ],
            [
              2.3894858,
              48.8946446
            ],
            [
              2.3893798,
              48.8947102
            ],
            [
              2.3893627,
              48.8947174
            ]
          ]
        ]
      },
      "id": "way/58169110"
    },
    {
      "type": "Feature",
      "properties": {
        "@id": "way/22690170",
        "@relations": [
          {
            "role": "street",
            "rel": 13036735,
            "reltags": {
              "name": "Allée du Cercle",
              "ref:FR:FANTOIR": "no",
              "type": "associatedStreet",
              "wikidata": "Q107711542"
            }
          }
        ]
      },
      "geometry": {
        "type": "LineString",
        "coordinates": [
          [
            2.388962,
            48.8929566
          ],
          [
            2.389335,
            48.8927803
          ],
          [
            2.3897929,
            48.8926724
          ],
          [
            2.3899753,
            48.892656
          ],
          [
            2.390014,
            48.8926567
          ],
          [
            2.3903613,
            48.8926744
          ],
          [
            2.3906212,
            48.8927158
          ],
          [
            2.3907978,
            48.8927552
          ],
          [
            2.3909546,
            48.8928038
          ],
          [
            2.3911484,
            48.8928717
          ],
          [
            2.3914284,
            48.8930446
          ],
          [
            2.3916761,
            48.8932998
          ],
          [
            2.3917084,
            48.8933489
          ],
          [
            2.3917532,
            48.893431
          ],
          [
            2.3917885,
            48.8935158
          ],
          [
            2.3918198,
            48.8936327
          ],
          [
            2.3918304,
            48.8937158
          ],
          [
            2.3918206,
            48.8938174
          ],
          [
            2.3918069,
            48.8939603
          ],
          [
            2.3917796,
            48.8940439
          ],
          [
            2.391721,
            48.894162
          ],
          [
            2.3916987,
            48.8942022
          ],
          [
            2.3916329,
            48.8942932
          ]
        ]
      },
      "id": "way/22690170"
    },
    {
      "type": "Feature",
      "properties": {
        "@id": "way/22690171",
        "@relations": [
          {
            "role": "street",
            "rel": 13036735,
            "reltags": {
              "name": "Allée du Cercle",
              "ref:FR:FANTOIR": "no",
              "type": "associatedStreet",
              "wikidata": "Q107711542"
            }
          }
        ]
      },
      "geometry": {
        "type": "LineString",
        "coordinates": [
          [
            2.3885736,
            48.8941612
          ],
          [
            2.3885153,
            48.8941145
          ],
          [
            2.3884772,
            48.8940252
          ],
          [
            2.3884853,
            48.8939187
          ],
          [
            2.3884328,
            48.8938115
          ],
          [
            2.3884369,
            48.8937801
          ],
          [
            2.3884693,
            48.8935334
          ],
          [
            2.3885363,
            48.8933814
          ],
          [
            2.388597,
            48.8932865
          ],
          [
            2.3886714,
            48.8931953
          ]
        ]
      },
      "id": "way/22690171"
    },
    {
      "type": "Feature",
      "properties": {
        "@id": "way/22690172",
        "@relations": [
          {
            "role": "street",
            "rel": 13036735,
            "reltags": {
              "name": "Allée du Cercle",
              "ref:FR:FANTOIR": "no",
              "type": "associatedStreet",
              "wikidata": "Q107711542"
            }
          }
        ]
      },
      "geometry": {
        "type": "LineString",
        "coordinates": [
          [
            2.3913245,
            48.8945647
          ],
          [
            2.3912067,
            48.8946341
          ],
          [
            2.3910813,
            48.8946953
          ],
          [
            2.3908963,
            48.8947664
          ],
          [
            2.3908343,
            48.8947859
          ],
          [
            2.3905688,
            48.8948482
          ],
          [
            2.3903628,
            48.8948754
          ],
          [
            2.3903269,
            48.8948784
          ],
          [
            2.3900934,
            48.8948855
          ]
        ]
      },
      "id": "way/22690172"
    },
    {
      "type": "Feature",
      "properties": {
        "@id": "way/64040324",
        "access:blind": "limited",
        "access:deaf": "limited",
        "access:wheelchair": "yes",
        "amenity": "arts_centre",
        "building": "yes",
        "image": "https://www.lavillette.com/wp-content/uploads/2025/05/DSC00657.jpg",
        "name": "Freestyle Villette (ex. Pavillon Villette)",
        "old_name": "Maison de la Villette",
        "phone": "+33 1 40 03 75 75",
        "source": "cadastre-dgi-fr source : Direction Générale des Impôts - Cadastre. Mise à jour : 2010 + survey 2015",
        "website": "https://www.lavillette.com/freestyle-villette/"
      },
      "geometry": {
        "type": "Polygon",
        "coordinates": [
          [
            [
              2.3849711,
              48.8960453
            ],
            [
              2.3848529,
              48.8959912
            ],
            [
              2.3849066,
              48.8959393
            ],
            [
              2.384895,
              48.8958856
            ],
            [
              2.3848205,
              48.8958487
            ],
            [
              2.3849016,
              48.8957742
            ],
            [
              2.3849813,
              48.8958127
            ],
            [
              2.3850511,
              48.8958074
            ],
            [
              2.385108,
              48.8957542
            ],
            [
              2.3852247,
              48.895809
            ],
            [
              2.3851715,
              48.895861
            ],
            [
              2.3851841,
              48.8959083
            ],
            [
              2.3852574,
              48.8959436
            ],
            [
              2.3851775,
              48.8960195
            ],
            [
              2.3850975,
              48.895984
            ],
            [
              2.3850273,
              48.8959921
            ],
            [
              2.3849711,
              48.8960453
            ]
          ]
        ]
      },
      "id": "way/64040324"
    }
  ]
}
