{"type":"FeatureCollection","features":[{"type":"Feature","geometry":{"type":"Point","coordinates":[18.522784665,-33.48255583]},"properties":{"festival":"http://www.wikidata.org/entity/Q131057081","festivalLabel":"Rocking The Daisies","festivalDescription":"music festival in Western Cape, South Africa"}},{"type":"Feature","geometry":{"type":"Point","coordinates":[27.13611111,-24.88388889]},"properties":{"festival":"http://www.wikidata.org/entity/Q7098568","festivalLabel":"Oppikoppi","festivalDescription":"former music festival in Limpopo Province, South Africa"}},{"type":"Feature","geometry":{"type":"Point","coordinates":[26.5193,-33.3195]},"properties":{"festival":"http://www.wikidata.org/entity/Q10990225","festivalLabel":"National Arts Festival","festivalDescription":"South African annual performing arts festival"}},{"type":"Feature","geometry":{"type":"Point","coordinates":[28.416667,-28.516667]},"properties":{"festival":"http://www.wikidata.org/entity/Q137455846","festivalLabel":"Clarens arts festival","festivalDescription":"Annual cultural event that takes place in Clarens"}},{"type":"Feature","geometry":{"type":"Point","coordinates":[26.526666666,-33.31]},"properties":{"festival":"http://www.wikidata.org/entity/Q6979502","festivalLabel":"National Youth Jazz Festival","festivalDescription":"festival de musique"}},{"type":"Feature","geometry":{"type":"Point","coordinates":[26.9022247,-26.67771]},"properties":{"festival":"http://www.wikidata.org/entity/Q3642773","festivalLabel":"Aardklop","festivalDescription":"cultural festival in Potchefstroom in South Africa"}},{"type":"Feature","geometry":{"type":"Point","coordinates":[31.025,-29.8583]},"properties":{"festival":"http://www.wikidata.org/entity/Q1266836","festivalLabel":"Durban International Film Festival","festivalDescription":"annual film festival held in Durban, South Africa"}},{"type":"Feature","geometry":{"type":"Point","coordinates":[18.420129,-33.904859]},"properties":{"festival":"http://www.wikidata.org/entity/Q6650288","festivalLabel":"Little Hearts Festival","festivalDescription":"2008 music festival held in Cape Town, South Africa","festivalimage":"http://commons.wikimedia.org/wiki/Special:FilePath/Littleheartsfestival2.JPG?width=200"}}]}
