{
"license": "CC0-1.0",
"description": {
"en": "UCT Hiddingh Campus."
},
"sources": "Openstreetmap",
"mediawikiCategories":[
{
"name": "UCT Hiddingh Campus",
"sort":""
}
],
"zoom": 17,
"latitude": 18.42,
"longitude": -33.93,
"type":"FeatureCollection", "features": [
{"type":"Feature","geometry":{"type":"Polygon","coordinates":[[[18.413436,-33.9297308],[18.413465,-33.9297029],[18.4134577,-33.9296976],[18.4134707,-33.929685],[18.413478,-33.9296903],[18.4135249,-33.9296451],[18.4135179,-33.9296396],[18.4135309,-33.929627],[18.4135787,-33.9295809],[18.4135918,-33.9295683],[18.4135991,-33.9295736],[18.4136441,-33.9295302],[18.4136368,-33.929525],[18.4136498,-33.9295124],[18.4136571,-33.9295176],[18.4137049,-33.9294715],[18.4136999,-33.9294679],[18.4137121,-33.9294561],[18.4137172,-33.9294597],[18.4137577,-33.9294207],[18.4137136,-33.9293889],[18.4137114,-33.9293911],[18.4136573,-33.9293484],[18.4136121,-33.929392],[18.4135384,-33.9293389],[18.4136178,-33.9292661],[18.4135669,-33.9292275],[18.4135505,-33.9292426],[18.4135718,-33.9292587],[18.4135082,-33.9293171],[18.4134427,-33.9292699],[18.4133927,-33.9293181],[18.4133849,-33.9293179],[18.4132766,-33.9294223],[18.4132554,-33.9294071],[18.4132324,-33.9294293],[18.4132536,-33.9294445],[18.413257,-33.9294412],[18.4132584,-33.9294476],[18.4132084,-33.9294958],[18.4132693,-33.9295397],[18.4132515,-33.9295568],[18.4132279,-33.9295397],[18.4132102,-33.9295567],[18.4132576,-33.9295909],[18.4132412,-33.9296067],[18.4133334,-33.9296731],[18.4133272,-33.9296792],[18.4134169,-33.9297438],[18.413436,-33.9297308]],[[18.4133345,-33.9296099],[18.4133483,-33.9295966],[18.4133852,-33.9296232],[18.4133715,-33.9296365],[18.4133345,-33.9296099]],[[18.4134473,-33.9294026],[18.4135433,-33.9294717],[18.4134625,-33.9295496],[18.4133665,-33.9294805],[18.4134473,-33.9294026]]]},
"properties":{
       "marker-size": "small",
       "marker-color": "#0a1633",
       "marker-symbol": "town",
       "title": "Ritchie Building",
       "description": "Description here.",
        "year": 1900
      }}
]}
