{
  "type": "FeatureCollection",
  "features": [
    {
      "type": "Feature",
      "properties": {
        "name": "Villa Arcadia",
        "description": "Mansion in Parktown"
      },
      "geometry": {
        "type": "Point",
        "coordinates": [-26.1729,28.0248 ]
      }
    },
    {
      "type": "Feature",
      "properties": {
        "name": "Northwards",
        "description": "Heritage home"
      },
      "geometry": {
        "type": "Point",
        "coordinates": [-26.1765,28.0261]
      }
    },
    {
      "type": "Feature",
      "properties": {
        "name": "Stonehouse",
        "description": "Historic Parktown mansion"
      },
      "geometry": {
        "type": "Point",
        "coordinates": [-26.1731,28.0229]
      }
    }
    /* …more features here… */
  ]
}
