{
  "type": "FeatureCollection",
  "bbox": [29.6, -29.9, 30.7, -28.9],
  "features": [

    {
      "type": "Feature",
      "properties": {
        "feature_type": "region",
        "name": "KwaZulu-Natal Midlands"
      },
      "geometry": {
        "type": "Polygon",
        "coordinates": []
      }
    },

    {
      "type": "Feature",
      "properties": {
        "feature_type": "venue",
        "name": "Fordoun",
        "category": "luxury",
        "capacity": 180
      },
      "geometry": {
        "type": "Point",
        "coordinates": [30.12, -29.33]
      }
    }

  ]
}
