{"type":"FeatureCollection","features":[{"type":"Feature","properties":{"@id":"way/615633000","addr:street":"4th Avenue","amenity":"restaurant","building":"commercial","name":"Picobella"},"geometry":{"type":"Polygon","coordinates":[[[28.0054305,-26.1754557],[28.005476,-26.1755818],[28.0055732,-26.1755535],[28.0055277,-26.1754274],[28.0054305,-26.1754557]]]},"id":"way/615633000"},{"type":"Feature","properties":{"@id":"way/615646142","addr:housenumber":"23A","addr:street":"Rustenburg Road","building":"commercial","source":"Kaart Ground Survey 2018"},"geometry":{"type":"Polygon","coordinates":[[[28.0155002,-26.1768085],[28.01546,-26.1768967],[28.0155552,-26.1769316],[28.0155954,-26.1768434],[28.0155002,-26.1768085]]]},"id":"way/615646142"},{"type":"Feature","properties":{"@id":"way/615646143","addr:street":"Carlow Road","building":"commercial","name":"CSIR","source":"Kaart Ground Survey 2018"},"geometry":{"type":"Polygon","coordinates":[[[28.0300766,-26.1820083],[28.0302925,-26.1819409],[28.0302235,-26.1817629],[28.0300076,-26.1818303],[28.0300766,-26.1820083]]]},"id":"way/623184235"},{"type":"Feature","properties":{"@id":"way/701529924","building":"commercial","name":"Rand Steam Food Area"},"geometry":{"type":"Polygon","coordinates":[[[28.0164569,-26.1820317],[28.0165316,-26.1823123],[28.0170787,-26.1822292],[28.017068,-26.182143],[28.0169469,-26.1821574],[28.0168996,-26.1819615],[28.0166165,-26.1820027],[28.0164569,-26.1820317]]]},"id":"way/701529924"},{"type":"Feature","properties":{"@id":"way/727944402","addr:city":"Johannesburg","amenity":"cafe","building":"yes","contact:facebook":"https://www.facebook.com/Spilt-Milk-Social-Caf%C3%A9-934385313426148/","cuisine":"regional;coffee_shop;european;tea","internet_access":"yes","internet_access:fee":"no","internet_access:ssid":"Spilt Milk","name":"Spilt Milk - Social Cafe","smoking":"no","takeaway":"yes"},"geometry":{"type":"Polygon","coordinates":[[[28.0082216,-26.1776337],[28.0082173,-26.1776539],[28.0082003,-26.177651],[28.0081887,-26.1777054],[28.0082069,-26.1777085],[28.0082036,-26.1777242],[28.0083343,-26.1777466],[28.0083634,-26.177731],[28.0083784,-26.1776607],[28.0082216,-26.1776337]]]},"id":"way/727944402"},{"type":"Feature","properties":{"@id":"way/731408993","building":"commercial"},"geometry":{"type":"Polygon","coordinates":[[[28.0085373,-26.177477],[28.008482,-26.1777445],[28.0085059,-26.1777762],[28.0085757,-26.1777879],[28.0085849,-26.1777438],[28.0086121,-26.1777484],[28.0086253,-26.1776848],[28.0086064,-26.1776816],[28.0086133,-26.1776481],[28.0086318,-26.1776512],[28.0086458,-26.1775839],[28.0086255,-26.1775805],[28.0086331,-26.1775441],[28.0086452,-26.1775461],[28.0086476,-26.1775343],[28.0086639,-26.177537],[28.0086717,-26.1774994],[28.0085373,-26.177477]]]},"id":"way/731408993"},{"type":"Feature","properties":{"@id":"way/731813439","building":"commercial"},"geometry":{"type":"Polygon","coordinates":[[[28.0277294,-26.1844829],[28.027649,-26.1847278],[28.0278455,-26.1847798],[28.0277827,-26.1849708],[28.0281957,-26.1850801],[28.028289,-26.1847962],[28.0283148,-26.184803],[28.0283466,-26.1847063],[28.0283053,-26.1846954],[28.0283096,-26.184682],[28.027998,-26.1845997],[28.0280007,-26.1845916],[28.0279897,-26.1845705],[28.0279177,-26.1845515],[28.0279233,-26.1845342],[28.0277294,-26.1844829]]]},"id":"way/731813439"},{"type":"Feature","properties":{"@id":"way/731813443","building":"commercial"},"geometry":{"type":"Polygon","coordinates":[[[28.027884,-26.1840712],[28.027842,-26.1841997],[28.0277814,-26.1841838],[28.027823,-26.1840567],[28.0277102,-26.184027],[28.0276434,-26.1842314],[28.0277248,-26.1842528],[28.0276965,-26.1843391],[28.0278023,-26.184367],[28.0278158,-26.1843259],[28.028626,-26.1845393],[28.0286948,-26.1843289],[28.0283537,-26.1842391],[28.028367,-26.1841983],[28.027884,-26.1840712]]]},"id":"way/731813443"},{"type":"Feature","properties":{"@id":"way/765835679","amenity":"restaurant","building":"yes","name":"PIZAeVINO"},"geometry":{"type":"Polygon","coordinates":[[[28.0068348,-26.1824309],[28.0067152,-26.1824048],[28.0067098,-26.1824245],[28.0066747,-26.1824168],[28.0066366,-26.1825576],[28.0067912,-26.1825914],[28.0068348,-26.1824309]]]},"id":"way/765835679"},{"type":"Feature","properties":{"@id":"node/242956733","addr:city":"Melville","addr:country":"ZA","addr:postcode":2109,"addr:province":"Gauteng","amenity":"fast_food","branch":"Melville","brand":"Steers","brand:wikidata":"Q3056765","contact:facebook":"https://www.facebook.com/SteersMelville","cuisine":"burger","delivery":"yes","name":"Steers","opening_hours":"Mo-Su 09:00-20:00","payment:american_express":"yes","payment:cash":"yes","payment:diners_club":"yes","payment:mastercard":"yes","payment:visa":"yes","phone":"+27 11 482 9520","ref":12430698,"takeaway":"yes","website":"https://location.steers.co.za/melville","website:menu":"https://steers.co.za/steers-menu","website:orders":"https://app.steers.co.za/restaurant/6622/steers-melville"},"geometry":{"type":"Point","coordinates":[28.0004378,-26.1756071]},"id":"node/242956733"},{"type":"Feature","properties":{"@id":"node/242958210","amenity":"fast_food","name":"Pizza Perfect"},"geometry":{"type":"Point","coordinates":[28.0002467,-26.1755847]},"id":"node/242958210"},{"type":"Feature","properties":{"@id":"node/242958611","amenity":"pub","name":"Roxys"},"geometry":{"type":"Point","coordinates":[28.0010496,-26.1760336]},"id":"node/242958611"},{"type":"Feature","properties":{"@id":"node/242960319","addr:postcode":2000,"addr:street":"University Road","amenity":"fast_food","branch":"Auckland Park","brand":"McDonald's","brand:wikidata":"Q38076","brand:wikipedia":"en:McDonald's","cuisine":"burger","drive_through":"yes","name":"McDonald's","phone":"+27 11 482 5062","takeaway":"yes","website":"https://www.mcdonalds.co.za/"},"geometry":{"type":"Point","coordinates":[28.0016973,-26.1809902]},"id":"node/242960319"},{"type":"Feature","properties":{"@id":"node/242960341","addr:city":"Johannesburg","addr:country":"ZA","addr:postcode":2109,"addr:province":"Gauteng","alt_name":"Kentucky Fried Chicken","amenity":"fast_food","branch":"KINGSWAY (MELVILLE)","brand":"KFC","brand:wikidata":"Q524757","check_date":"2024-08-12","cuisine":"chicken","delivery":"yes","drive_through":"yes","name":"KFC","opening_hours":"Mo-Su 00:00-24:00","phone":"+27 860 100 222","ref":"KSA061","takeaway":"yes","website":"https://order.kfc.co.za/restaurants/kfc-kingsway-(melville)/2109"},"geometry":{"type":"Point","coordinates":[28.0024961,-26.1807533]},"id":"node/242960341"},{"type":"Feature","properties":{"@id":"node/242960437","amenity":"pub","name":"Dros"},"geometry":{"type":"Point","coordinates":[28.003426,-26.1820792]},"id":"node/242960437"},{"type":"Feature","properties":{"@id":"node/242960441","amenity":"pub","name":"News Cafe"},"geometry":{"type":"Point","coordinates":[28.0027154,-26.1820721]},"id":"node/242960441"},{"type":"Feature","properties":{"@id":"node/242960513","addr:city":"Johannesburg","addr:housenumber":39,"addr:postcode":2092,"addr:street":"Kingsway Avenue, Campus Square","amenity":"restaurant","branch":"Campus Square","brand":"Wimpy","brand:website":"https://wimpy.co.za/","brand:wikidata":"Q2811992","brand:wikipedia":"en:Wimpy (restaurant)","cuisine":"burger;breakfast","name":"Wimpy","phone":"+27 87 265 3449","takeaway":"yes","website":"https://wimpy.co.za/"},"geometry":{"type":"Point","coordinates":[28.0044399,-26.1816846]},"id":"node/242960513"},{"type":"Feature","properties":{"@id":"node/299270661","amenity":"restaurant","name":"The Bohemian"},"geometry":{"type":"Point","coordinates":[28.0135281,-26.1818181]},"id":"node/299270661"},{"type":"Feature","properties":{"@id":"node/687898155","amenity":"fast_food","name":"King Pie"},"geometry":{"type":"Point","coordinates":[28.0032525,-26.1825302]},"id":"node/687898155"},{"type":"Feature","properties":{"@id":"node/687898157","amenity":"fast_food","name":"London Pie"},"geometry":{"type":"Point","coordinates":[28.003559,-26.1826007]},"id":"node/687898157"},{"type":"Feature","properties":{"@id":"node/687898158","amenity":"fast_food","cuisine":"sandwich","name":"Sandwitch Baron"},"geometry":{"type":"Point","coordinates":[28.0036524,-26.1826409]},"id":"node/687898158"},{"type":"Feature","properties":{"@id":"node/687898160","amenity":"bank","brand":"Standard Bank","brand:wikidata":"Q1576610","name":"Standard Bank"},"geometry":{"type":"Point","coordinates":[28.0040457,-26.1825198]},"id":"node/687898160"},{"type":"Feature","properties":{"@id":"node/687898164","amenity":"bank","brand":"Capitec Bank","brand:wikidata":"Q5035822","name":"Capitec Bank"},"geometry":{"type":"Point","coordinates":[28.0034543,-26.1822888]},"id":"node/687898164"},{"type":"Feature","properties":{"@id":"node/687898165","amenity":"fast_food","cuisine":"fish_and_chips"},"geometry":{"type":"Point","coordinates":[28.0028153,-26.1822116]},"id":"node/687898165"},{"type":"Feature","properties":{"@id":"node/687898166","amenity":"restaurant","cuisine":"pizza","name":"Mimmos"},"geometry":{"type":"Point","coordinates":[28.0030657,-26.1820305]},"id":"node/687898166"},{"type":"Feature","properties":{"@id":"node/687898169","amenity":"fast_food","brand":"Chicken Licken","brand:wikidata":"Q4164819","brand:wikipedia":"en:Chicken Licken (restaurant)","cuisine":"chicken","name":"Chicken Licken","takeaway":"yes"},"geometry":{"type":"Point","coordinates":[28.0028078,-26.1819735]},"id":"node/687898169"},{"type":"Feature","properties":{"@id":"node/687898173","amenity":"bank","brand":"African Bank Limited","brand:wikidata":"Q4689703","name":"African Bank"},"geometry":{"type":"Point","coordinates":[28.0039514,-26.1823357]},"id":"node/687898173"},{"type":"Feature","properties":{"@id":"node/687898192","amenity":"fast_food","name":"Anat"},"geometry":{"type":"Point","coordinates":[28.0045578,-26.181699]},"id":"node/687898192"},{"type":"Feature","properties":{"@id":"node/1556397513","addr:housenumber":22,"addr:postcode":2092,"addr:street":"7th Street","alt_name":"Portuguese All Day Cafe","amenity":"restaurant","contact:facebook":"https://www.facebook.com/nunosmelville","name":"Nuno's","website":"www.nunos.co.za"},"geometry":{"type":"Point","coordinates":[28.0083816,-26.1773472]},"id":"node/1556397513"},{"type":"Feature","properties":{"@id":"node/1556401649","addr:housenumber":3,"addr:postcode":2092,"addr:street":"7th Street","alt_name":"Cosmo fusion, Italian steak house","amenity":"restaurant","cuisine":"italian","name":"The Loft","website":"www.theloftmelville.co.za"},"geometry":{"type":"Point","coordinates":[28.0087673,-26.1769736]},"id":"node/1556401649"},{"type":"Feature","properties":{"@id":"node/1556403349","addr:housenumber":16,"addr:postcode":2092,"addr:street":"4th Avenue","amenity":"restaurant","cuisine":"international","name":"Lucky Bean","old_name":"Soulsa"},"geometry":{"type":"Point","coordinates":[28.0090597,-26.1755679]},"id":"node/1556403349"},{"type":"Feature","properties":{"@id":"node/1556406073","addr:housenumber":12,"addr:postcode":2092,"addr:street":"Main Road","amenity":"restaurant","cuisine":"international","name":"Catz Pyjamas","website":"www.catzpyjamas.co.za"},"geometry":{"type":"Point","coordinates":[28.0013671,-26.1771325]},"id":"node/1556406073"},{"type":"Feature","properties":{"@id":"node/1556409527","amenity":"restaurant","diet:vegetarian":"yes","name":"Bambanani","opening_hours":"Su-Th,PH 08:00-20:00; Fr,Sa 08:00-21:00"},"geometry":{"type":"Point","coordinates":[28.0084124,-26.1754945]},"id":"node/1556409527"},{"type":"Feature","properties":{"@id":"node/1556410789","amenity":"bar","check_date":"2023-10-14","contact:facebook":"https://www.facebook.com/smokingkillsbar","name":"Smoking Kills"},"geometry":{"type":"Point","coordinates":[28.0084017,-26.1757834]},"id":"node/1556410789"},{"type":"Feature","properties":{"@id":"node/2497322111","amenity":"restaurant","name":"Service Station"},"geometry":{"type":"Point","coordinates":[28.0134444,-26.1744744]},"id":"node/2497322111"},{"type":"Feature","properties":{"@id":"node/3797067336","amenity":"restaurant","brand":"Ocean Basket","brand:wikidata":"Q62075311","cuisine":"seafood","name":"Ocean Basket"},"geometry":{"type":"Point","coordinates":[28.001402,-26.1775396]},"id":"node/3797067336"},{"type":"Feature","properties":{"@id":"node/4544309601","addr:city":"Johannesburg","addr:postcode":2092,"addr:street":"7th Street","amenity":"restaurant","contact:facebook":"https://www.facebook.com/TheAntCafe","cuisine":"italian","name":"The Ant Café","name:en":"The Ant Café"},"geometry":{"type":"Point","coordinates":[28.0086986,-26.1760114]},"id":"node/4544309601"},{"type":"Feature","properties":{"@id":"node/4544407895","amenity":"bar","name":"Hell's Kitchen","name:en":"Hell's Kitchen"},"geometry":{"type":"Point","coordinates":[28.0086132,-26.1774845]},"id":"node/4544407895"},{"type":"Feature","properties":{"@id":"node/5498525423","addr:city":"Johannesburg","addr:housenumber":2,"addr:street":"7th Street","amenity":"restaurant","diet:vegetarian":"yes","name":"Pablo’s Eggs-Go-Bar","opening_hours":"Mo-Sa 06:30-16:00; Su,PH 06:30-15:00"},"geometry":{"type":"Point","coordinates":[28.0085416,-26.1777444]},"id":"node/5498525423"},{"type":"Feature","properties":{"@id":"node/5830089421","addr:city":"Johannesburg","addr:postcode":2092,"addr:street":"7th Street","alt_name":"Poppy's","amenity":"restaurant","name":"Oriental Food Bazaar","source":"Kaart Ground Survey 2018"},"geometry":{"type":"Point","coordinates":[28.0086969,-26.1771035]},"id":"node/5830089421"},{"type":"Feature","properties":{"@id":"node/6537097675","addr:city":"Johannesburg","addr:housenumber":14,"addr:postcode":2092,"addr:street":"Menton Road","amenity":"cafe","internet_access":"yes","internet_access:fee":"no","name":"The Richmond Cafe","outdoor_seating":"yes","phone":"+27 10 595 1070","wheelchair":"yes"},"geometry":{"type":"Point","coordinates":[28.0140507,-26.1819095]},"id":"node/6537097675"},{"type":"Feature","properties":{"@id":"node/6588320329","amenity":"cafe","cuisine":"cafe/diner;cafe","internet_access":"yes","internet_access:fee":"no","internet_access:ssid":"Bootlegger Rand Steam","name":"Bootlegger Rand Steam","opening_hours":"Mo-Fr 06:30-21:00","outdoor_seating":"yes","phone":"+27 10 035 0605","website":"https://bootlegger.co.za"},"geometry":{"type":"Point","coordinates":[28.0166788,-26.1820047]},"id":"node/6588320329"},{"type":"Feature","properties":{"@id":"node/6588639186","addr:housenumber":"Shop 21","addr:postcode":2092,"addr:street":"Napier Road","amenity":"restaurant","cuisine":"chicken;african;sushi","internet_access":"wlan","name":"Cowfish Rand Steam","opening_hours":"Mo-Sa 11:00-21:00; Su 11:00-18:00","phone":"+27 72 0759502","website":"https://cow-fish.co.za/"},"geometry":{"type":"Point","coordinates":[28.0164763,-26.182078]},"id":"node/6588639186"},{"type":"Feature","properties":{"@id":"node/6983453828","amenity":"restaurant","cuisine":"indian","name":"Bismillah"},"geometry":{"type":"Point","coordinates":[28.0013404,-26.1793236]},"id":"node/6983453828"},{"type":"Feature","properties":{"@id":"node/7152470077","amenity":"restaurant","cuisine":"italian","name":"PIZAeVINO"},"geometry":{"type":"Point","coordinates":[28.0067078,-26.1825006]},"id":"node/7152470077"},{"type":"Feature","properties":{"@id":"node/7273677205","addr:city":"Johannesburg","addr:postcode":2092,"addr:street":"7th Street","amenity":"restaurant","contact:facebook":"https://www.facebook.com/XaiXaiLounge","cuisine":"pizza","name":"Xai Xai"},"geometry":{"type":"Point","coordinates":[28.0083932,-26.1772809]},"id":"node/7273677205"},{"type":"Feature","properties":{"@id":"node/7273677206","addr:city":"Johannesburg","addr:postcode":2092,"addr:street":"7th Street","amenity":"bar","contact:facebook":"https://www.facebook.com/MaisonMelville/","contact:instagram":"https://www.instagram.com/la_maisonmelville/","description":"Bistro and wine bar","email":"maisonmelville@gmail.com","name":"La Petite Maison","phone":"+27 10 593 7986","website":"https://maisonmelville.co.za"},"geometry":{"type":"Point","coordinates":[28.008372,-26.1775293]},"id":"node/7273677206"},{"type":"Feature","properties":{"@id":"node/7273677207","addr:city":"Johannesburg","addr:postcode":2092,"addr:street":"7th Street","amenity":"bar","contact:facebook":"https://www.facebook.com/melvillecomedyclub/","contact:youtube":"https://www.youtube.com/channel/UCqb7NY7l-X5Qu0gdT6GtdCw","name":"Melville Comedy Club","website":"https://goliathandgoliath.com"},"geometry":{"type":"Point","coordinates":[28.0083691,-26.1775614]},"id":"node/7273677207"},{"type":"Feature","properties":{"@id":"node/7510036227","amenity":"restaurant","name":"Winner Winner"},"geometry":{"type":"Point","coordinates":[28.0058685,-26.175117]},"id":"node/7510036227"},{"type":"Feature","properties":{"@id":"node/7510036228","amenity":"restaurant","name":"Love Me So"},"geometry":{"type":"Point","coordinates":[28.0057532,-26.1751459]},"id":"node/7510036228"},{"type":"Feature","properties":{"@id":"node/12142759568","amenity":"library","name":"UJ APK Madibeng Library","opening_hours":"Mo-Su 08:00-17:00"},"geometry":{"type":"Point","coordinates":[27.9979979,-26.1827649]},"id":"node/12142759568"},{"type":"Feature","properties":{"@id":"node/12142759569","amenity":"fast_food","name":"Student center"},"geometry":{"type":"Point","coordinates":[27.9960347,-26.1824877]},"id":"node/12142759569"},{"type":"Feature","properties":{"@id":"node/12353407590","addr:door":4,"amenity":"restaurant","check_date":"2024-11-19","contact:facebook":"https://www.facebook.com/ReservedCafe/","cuisine":"coffee_shop","dog":"leashed","name":"Reserved","website":"https://reservedcafe.co.za/"},"geometry":{"type":"Point","coordinates":[28.0073391,-26.1756261]},"id":"node/12353407590"},{"type":"Feature","properties":{"@id":"node/13441970121","addr:floor":"G","amenity":"restaurant","check_date":"2026-04-18","contact:instagram":"https://www.instagram.com/de_baba_eatery","cuisine":"breakfast;burger;bakery","dog":"leashed;outside","indoor_seating":"yes","level":0,"name":"De Baba Eatery","outdoor_seating":"yes","payment:cash":"yes","payment:credit_cards":"yes","payment:debit_cards":"yes","reservation":"yes","toilets":"yes","website":"https://www.debaba.co.za/"},"geometry":{"type":"Point","coordinates":[28.0087257,-26.1758362]},"id":"node/13441970121"}]}
