{
  "type": "FeatureCollection",
  "generator": "overpass-turbo",
  "copyright": "The data included in this document is from www.openstreetmap.org. The data is made available under ODbL.",
  "timestamp": "2026-05-15T09:54:27Z",
  "features": [
    {
      "type": "Feature",
      "properties": {
        "addr:city": "Durban",
        "addr:housenumber": "63",
        "addr:postcode": "4001",
        "addr:street": "Snell Parade",
        "brand": "Southern Sun",
        "building": "yes",
        "name": "Southern Sun Elangeni & Maharani",
        "type": "multipolygon",
        "wheelchair": "yes",
        "wikidata": "Q111401306"
      },
      "geometry": {
        "type": "MultiPolygon",
        "coordinates": [
          [
            [
              [
                31.0347828,
                -29.846218
              ],
              [
                31.034277,
                -29.8462123
              ],
              [
                31.0342727,
                -29.8462811
              ],
              [
                31.0342781,
                -29.8462997
              ],
              [
                31.034301,
                -29.8462994
              ],
              [
                31.0343017,
                -29.846286
              ],
              [
                31.034363,
                -29.8462873
              ],
              [
                31.034413,
                -29.8462968
              ],
              [
                31.034476,
                -29.8463265
              ],
              [
                31.0344759,
                -29.8463739
              ],
              [
                31.0343934,
                -29.8463795
              ],
              [
                31.034402,
                -29.846474
              ],
              [
                31.0343466,
                -29.8464781
              ],
              [
                31.0343364,
                -29.8464253
              ],
              [
                31.034281,
                -29.8464244
              ],
              [
                31.0342926,
                -29.8465399
              ],
              [
                31.0342925,
                -29.8466001
              ],
              [
                31.0344168,
                -29.8465876
              ],
              [
                31.0344275,
                -29.8467021
              ],
              [
                31.0343,
                -29.8467294
              ],
              [
                31.0343514,
                -29.8468907
              ],
              [
                31.034441,
                -29.8468724
              ],
              [
                31.0344744,
                -29.8469487
              ],
              [
                31.0345422,
                -29.8469348
              ],
              [
                31.034557,
                -29.8469717
              ],
              [
                31.0348158,
                -29.8469132
              ],
              [
                31.0348466,
                -29.8468939
              ],
              [
                31.0348774,
                -29.8468657
              ],
              [
                31.0349002,
                -29.8468277
              ],
              [
                31.0349056,
                -29.8467723
              ],
              [
                31.0348922,
                -29.8467221
              ],
              [
                31.0348775,
                -29.846659
              ],
              [
                31.0348504,
                -29.8465252
              ],
              [
                31.0348375,
                -29.8463861
              ],
              [
                31.0348281,
                -29.8462225
              ],
              [
                31.0347828,
                -29.846218
              ]
            ]
          ],
          [
            [
              [
                31.0349515,
                -29.8455867
              ],
              [
                31.0344836,
                -29.8454967
              ],
              [
                31.0343741,
                -29.8454745
              ],
              [
                31.0342802,
                -29.8459262
              ],
              [
                31.0343065,
                -29.8459343
              ],
              [
                31.0347943,
                -29.8459953
              ],
              [
                31.0348106,
                -29.8460001
              ],
              [
                31.0348296,
                -29.8459169
              ],
              [
                31.0347775,
                -29.8458901
              ],
              [
                31.0347868,
                -29.8458432
              ],
              [
                31.0348485,
                -29.8458385
              ],
              [
                31.0349515,
                -29.8455867
              ]
            ]
          ]
        ]
      },
      "id": "relation/16125725"
    }
  ]
}
