{"type":"FeatureCollection","features":[{"type":"Feature","properties":{"@id":"way/1140778198","building":"yes","name":"Kendra Hall"},"geometry":{"type":"Polygon","coordinates":[[[31.0098949,-29.8479746],[31.0098948,-29.8480699],[31.0099565,-29.8480699],[31.0100426,-29.8482005],[31.0100722,-29.8481871],[31.0101292,-29.8482824],[31.0101421,-29.8482767],[31.0101373,-29.8482685],[31.0101538,-29.8482619],[31.0101582,-29.8482689],[31.0101815,-29.848265],[31.0101981,-29.8482507],[31.010193,-29.8482419],[31.0102566,-29.8482137],[31.0102595,-29.8482205],[31.0102862,-29.848217],[31.0103015,-29.8482036],[31.0102964,-29.8481976],[31.0104352,-29.8481337],[31.0104514,-29.8481264],[31.0104603,-29.8481412],[31.0105711,-29.848098],[31.0105772,-29.8480777],[31.0105985,-29.8480725],[31.0105965,-29.8480522],[31.0106138,-29.8480416],[31.0106036,-29.8480231],[31.0106148,-29.8480055],[31.0105965,-29.8479922],[31.0105985,-29.8479737],[31.0105803,-29.8479693],[31.0105721,-29.8479517],[31.0105467,-29.8479473],[31.0105305,-29.8479376],[31.0104624,-29.8478406],[31.0104664,-29.8478274],[31.0104664,-29.8478115],[31.0104603,-29.847793],[31.0104512,-29.8477807],[31.010441,-29.8477701],[31.0104268,-29.847763],[31.0104044,-29.8477569],[31.0103882,-29.847756],[31.0103729,-29.8477569],[31.0103577,-29.8477639],[31.0103424,-29.8477736],[31.0103323,-29.8477842],[31.0103264,-29.8478021],[31.0102474,-29.8477826],[31.0102344,-29.8478261],[31.0101927,-29.8478162],[31.0101799,-29.8478557],[31.0101356,-29.8478457],[31.0101242,-29.8478842],[31.0100754,-29.847874],[31.0100643,-29.8479155],[31.0100202,-29.8479058],[31.0099796,-29.8479746],[31.0098949,-29.8479746]]]},"id":"way/1140778198"},{"type":"Feature","properties":{"name":"Kenra hall"},"geometry":{"coordinates":[31.010256990700668,-29.84797777811942],"type":"Point"},"id":1}]}
